IRIDIUM 159             
1 43578U 18061K   24064.49567217  .00000100  00000+0  28758-4 0  9994
2 43578  86.3951  45.5200 0002178  84.3931 275.7513 14.34217444293742
IRIDIUM 180             
1 43922U 19002A   24064.49517954  .00000394  00000+0  13358-3 0  9990
2 43922  86.4023 342.4371 0002184  83.4893 276.6552 14.34216026269356
IRIDIUM 176             
1 43923U 19002B   24064.51545761  .00001484  00000+0  23120-3 0  9990
2 43923  86.6150 342.4568 0002655  86.8743 273.2778 14.72286889276449
IRIDIUM 168             
1 43924U 19002C   24064.48882958  .00000384  00000+0  12990-3 0  9990
2 43924  86.4022 342.4934 0002127  83.6199 276.5239 14.34218801269332
IRIDIUM 173             
1 43925U 19002D   24064.47613771  .00000377  00000+0  12751-3 0  9992
2 43925  86.4021 342.4218 0002130  83.2971 276.8467 14.34215698269310
IRIDIUM 169             
1 43926U 19002E   24064.37437882  .00000583  00000+0  18395-3 0  9998
2 43926  86.4270  14.0520 0002012 157.2143 202.9145 14.38610918270208
IRIDIUM 172             
1 43927U 19002F   24064.46980276  .00000481  00000+0  16451-3 0  9997
2 43927  86.4021 342.4296 0002264  82.6573 277.4880 14.34219121269329
IRIDIUM 175             
1 43928U 19002G   24064.23776239  .00001465  00000+0  22829-3 0  9994
2 43928  86.1533 321.6573 0002271  85.2103 274.9373 14.72271682276394
